{"type": "FeatureCollection", "features": [ {"type": "Feature", "properties": {"norad_id": 35073, "name": "COSMOS 2251 DEB", "group": "cosmos-2251-debris", "lat": 4.5517492805419515, "lon": -10.623263722131107, "alt_km": 569.6475526920749, "timestamp": "2025-12-04T03:47:54.938058+00:00", "meta": {"OBJECT_NAME": "COSMOS 2251 DEB", "OBJECT_ID": "1993-036AJC", "EPOCH": "2025-11-29T08:29:21.429600", "MEAN_MOTION": 14.99364384, "ECCENTRICITY": 0.00097336, "INCLINATION": 74.0024, "RA_OF_ASC_NODE": 357.8403, "ARG_OF_PERICENTER": 101.5288, "MEAN_ANOMALY": 258.6992, "EPHEMERIS_TYPE": 0, "CLASSIFICATION_TYPE": "U", "NORAD_CAT_ID": 35073, "ELEMENT_SET_NO": 999, "REV_AT_EPOCH": 67278, "BSTAR": 0.00211185, "MEAN_MOTION_DOT": 0.00025921, "MEAN_MOTION_DDOT": 0}, "tle": {"line1": "1 35073U 93036AJC 25333.35372025  .00025921  00000+0  21119-2 0  9996", "line2": "2 35073  74.0024 357.8403 0009733 101.5288 258.6992 14.99364384672786"}}, "geometry": {"type": "Point", "coordinates": [-10.623263722131107, 4.5517492805419515]}}, {"type": "Feature", "properties": {"norad_id": 35284, "name": "COSMOS 2251 DEB", "group": "cosmos-2251-debris", "lat": -22.267328563494534, "lon": 106.95068957210023, "alt_km": 779.7154775381978, "timestamp": "2025-12-04T03:47:54.938069+00:00", "meta": {"OBJECT_NAME": "COSMOS 2251 DEB", "OBJECT_ID": "1993-036AJN", "EPOCH": "2025-12-01T13:38:31.155360", "MEAN_MOTION": 14.382963, "ECCENTRICITY": 0.00163281, "INCLINATION": 74.049, "RA_OF_ASC_NODE": 284.9919, "ARG_OF_PERICENTER": 3.7139, "MEAN_ANOMALY": 114.9177, "EPHEMERIS_TYPE": 0, "CLASSIFICATION_TYPE": "U", "NORAD_CAT_ID": 35284, "ELEMENT_SET_NO": 999, "REV_AT_EPOCH": 65365, "BSTAR": 0.00020439824, "MEAN_MOTION_DOT": 5.97e-06, "MEAN_MOTION_DDOT": 0}, "tle": {"line1": "1 35284U 93036AJN 25335.56841615  .00000597  00000+0  20440-3 0  9990", "line2": "2 35284  74.0490 284.9919 0016328   3.7139 114.9177 14.38296300653654"}}, "geometry": {"type": "Point", "coordinates": [106.95068957210023, -22.267328563494534]}}, {"type": "Feature", "properties": {"norad_id": 35287, "name": "COSMOS 2251 DEB", "group": "cosmos-2251-debris", "lat": 70.58167393737953, "lon": -13.768879943336694, "alt_km": 755.0959215326184, "timestamp": "2025-12-04T03:47:54.938079+00:00", "meta": {"OBJECT_NAME": "COSMOS 2251 DEB", "OBJECT_ID": "1993-036AJR", "EPOCH": "2025-12-03T08:05:46.925952", "MEAN_MOTION": 14.3636224, "ECCENTRICITY": 0.0017175, "INCLINATION": 74.0299, "RA_OF_ASC_NODE": 293.4128, "ARG_OF_PERICENTER": 32.768, "MEAN_ANOMALY": 122.7025, "EPHEMERIS_TYPE": 0, "CLASSIFICATION_TYPE": "U", "NORAD_CAT_ID": 35287, "ELEMENT_SET_NO": 999, "REV_AT_EPOCH": 86757, "BSTAR": 0.00022522, "MEAN_MOTION_DOT": 6.34e-06, "MEAN_MOTION_DDOT": 0}, "tle": {"line1": "1 35287U 93036AJR 25337.33734868  .00000634  00000+0  22522-3 0  9996", "line2": "2 35287  74.0299 293.4128 0017175  32.7680 122.7025 14.36362240867577"}}, "geometry": {"type": "Point", "coordinates": [-13.768879943336694, 70.58167393737953]}}, {"type": "Feature", "properties": {"norad_id": 35288, "name": "COSMOS 2251 DEB", "group": "cosmos-2251-debris", "lat": 50.782144531922974, "lon": 52.43312922201875, "alt_km": 694.667609818136, "timestamp": "2025-12-04T03:47:54.938089+00:00", "meta": {"OBJECT_NAME": "COSMOS 2251 DEB", "OBJECT_ID": "1993-036AJS", "EPOCH": "2025-12-02T12:13:38.607168", "MEAN_MOTION": 14.65270796, "ECCENTRICITY": 0.00396065, "INCLINATION": 73.9516, "RA_OF_ASC_NODE": 34.9675, "ARG_OF_PERICENTER": 269.719, "MEAN_ANOMALY": 89.9439, "EPHEMERIS_TYPE": 0, "CLASSIFICATION_TYPE": "U", "NORAD_CAT_ID": 35288, "ELEMENT_SET_NO": 999, "REV_AT_EPOCH": 87728, "BSTAR": 0.0014116495, "MEAN_MOTION_DOT": 7.675e-05, "MEAN_MOTION_DDOT": 0}, "tle": {"line1": "1 35288U 93036AJS 25336.50947462  .00007675  00000+0  14116-2 0  9992", "line2": "2 35288  73.9516  34.9675 0039606 269.7190  89.9439 14.65270796877282"}}, "geometry": {"type": "Point", "coordinates": [52.43312922201875, 50.782144531922974]}}, {"type": "Feature", "properties": {"norad_id": 35290, "name": "COSMOS 2251 DEB", "group": "cosmos-2251-debris", "lat": -52.982114710700216, "lon": -81.26563352277962, "alt_km": 634.0540977900564, "timestamp": "2025-12-04T03:47:54.938099+00:00", "meta": {"OBJECT_NAME": "COSMOS 2251 DEB", "OBJECT_ID": "1993-036AJU", "EPOCH": "2025-12-01T06:35:33.142560", "MEAN_MOTION": 14.79807104, "ECCENTRICITY": 0.00037082, "INCLINATION": 74.0051, "RA_OF_ASC_NODE": 82.0624, "ARG_OF_PERICENTER": 206.8807, "MEAN_ANOMALY": 153.2178, "EPHEMERIS_TYPE": 0, "CLASSIFICATION_TYPE": "U", "NORAD_CAT_ID": 35290, "ELEMENT_SET_NO": 999, "REV_AT_EPOCH": 87788, "BSTAR": 0.002855926, "MEAN_MOTION_DOT": 0.00021548, "MEAN_MOTION_DDOT": 0}, "tle": {"line1": "1 35290U 93036AJU 25335.27468915  .00021548  00000+0  28559-2 0  9990", "line2": "2 35290  74.0051  82.0624 0003708 206.8807 153.2178 14.79807104877885"}}, "geometry": {"type": "Point", "coordinates": [-81.26563352277962, -52.982114710700216]}}, {"type": "Feature", "properties": {"norad_id": 35432, "name": "COSMOS 2251 DEB", "group": "cosmos-2251-debris", "lat": -74.01234103990646, "lon": -56.588729983014765, "alt_km": 511.9178245880157, "timestamp": "2025-12-04T03:47:54.938109+00:00", "meta": {"OBJECT_NAME": "COSMOS 2251 DEB", "OBJECT_ID": "1993-036AKA", "EPOCH": "2025-12-02T12:41:27.608064", "MEAN_MOTION": 15.19283243, "ECCENTRICITY": 0.00119971, "INCLINATION": 74.023, "RA_OF_ASC_NODE": 37.0177, "ARG_OF_PERICENTER": 353.9321, "MEAN_ANOMALY": 6.1728, "EPHEMERIS_TYPE": 0, "CLASSIFICATION_TYPE": "U", "NORAD_CAT_ID": 35432, "ELEMENT_SET_NO": 999, "REV_AT_EPOCH": 87348, "BSTAR": 0.0074321278, "MEAN_MOTION_DOT": 0.00160594, "MEAN_MOTION_DDOT": 0}, "tle": {"line1": "1 35432U 93036AKA 25336.52879176  .00160594  00000+0  74321-2 0  9995", "line2": "2 35432  74.0230  37.0177 0011997 353.9321   6.1728 15.19283243873485"}}, "geometry": {"type": "Point", "coordinates": [-56.588729983014765, -74.01234103990646]}}, {"type": "Feature", "properties": {"norad_id": 35433, "name": "COSMOS 2251 DEB", "group": "cosmos-2251-debris", "lat": -62.25582986889896, "lon": -152.85268190960235, "alt_km": 800.3700059774501, "timestamp": "2025-12-04T03:47:54.938119+00:00", "meta": {"OBJECT_NAME": "COSMOS 2251 DEB", "OBJECT_ID": "1993-036AKB", "EPOCH": "2025-11-29T08:56:22.068960", "MEAN_MOTION": 14.34715508, "ECCENTRICITY": 0.00253594, "INCLINATION": 74.0352, "RA_OF_ASC_NODE": 2.9393, "ARG_OF_PERICENTER": 62.2545, "MEAN_ANOMALY": 316.1289, "EPHEMERIS_TYPE": 0, "CLASSIFICATION_TYPE": "U", "NORAD_CAT_ID": 35433, "ELEMENT_SET_NO": 999, "REV_AT_EPOCH": 86389, "BSTAR": 0.00023326055, "MEAN_MOTION_DOT": 6.37e-06, "MEAN_MOTION_DDOT": 0}, "tle": {"line1": "1 35433U 93036AKB 25333.37247765  .00000637  00000+0  23326-3 0  9990", "line2": "2 35433  74.0352   2.9393 0025359  62.2545 316.1289 14.34715508863897"}}, "geometry": {"type": "Point", "coordinates": [-152.85268190960235, -62.25582986889896]}}, {"type": "Feature", "properties": {"norad_id": 35434, "name": "COSMOS 2251 DEB", "group": "cosmos-2251-debris", "lat": 72.41955841989899, "lon": -66.31287550202426, "alt_km": 847.7825554250685, "timestamp": "2025-12-04T03:47:54.938129+00:00", "meta": {"OBJECT_NAME": "COSMOS 2251 DEB", "OBJECT_ID": "1993-036AKC", "EPOCH": "2025-11-30T00:02:53.789280", "MEAN_MOTION": 14.25623606, "ECCENTRICITY": 0.00876191, "INCLINATION": 74.0414, "RA_OF_ASC_NODE": 236.6139, "ARG_OF_PERICENTER": 309.9857, "MEAN_ANOMALY": 49.362, "EPHEMERIS_TYPE": 0, "CLASSIFICATION_TYPE": "U", "NORAD_CAT_ID": 35434, "ELEMENT_SET_NO": 999, "REV_AT_EPOCH": 85936, "BSTAR": 0.00077223856, "MEAN_MOTION_DOT": 1.879e-05, "MEAN_MOTION_DDOT": 0}, "tle": {"line1": "1 35434U 93036AKC 25334.00201145  .00001879  00000+0  77224-3 0  9999", "line2": "2 35434  74.0414 236.6139 0087619 309.9857  49.3620 14.25623606859363"}}, "geometry": {"type": "Point", "coordinates": [-66.31287550202426, 72.41955841989899]}}, {"type": "Feature", "properties": {"norad_id": 35435, "name": "COSMOS 2251 DEB", "group": "cosmos-2251-debris", "lat": 73.88679209534101, "lon": -142.09338074355566, "alt_km": 631.5287564823584, "timestamp": "2025-12-04T03:47:54.938139+00:00", "meta": {"OBJECT_NAME": "COSMOS 2251 DEB", "OBJECT_ID": "1993-036AKD", "EPOCH": "2025-12-01T04:42:29.570112", "MEAN_MOTION": 14.77856988, "ECCENTRICITY": 0.0009617, "INCLINATION": 74.0095, "RA_OF_ASC_NODE": 126.7727, "ARG_OF_PERICENTER": 217.2149, "MEAN_ANOMALY": 321.5063, "EPHEMERIS_TYPE": 0, "CLASSIFICATION_TYPE": "U", "NORAD_CAT_ID": 35435, "ELEMENT_SET_NO": 999, "REV_AT_EPOCH": 87368, "BSTAR": 0.0028899, "MEAN_MOTION_DOT": 0.00020833, "MEAN_MOTION_DDOT": 0}, "tle": {"line1": "1 35435U 93036AKD 25335.19617558  .00020833  00000+0  28899-2 0  9994", "line2": "2 35435  74.0095 126.7727 0009617 217.2149 321.5063 14.77856988873683"}}, "geometry": {"type": "Point", "coordinates": [-142.09338074355566, 73.88679209534101]}}, {"type": "Feature", "properties": {"norad_id": 35439, "name": "COSMOS 2251 DEB", "group": "cosmos-2251-debris", "lat": 38.95076327563754, "lon": -43.953500856313006, "alt_km": 1091.9448502182395, "timestamp": "2025-12-04T03:47:54.938149+00:00", "meta": {"OBJECT_NAME": "COSMOS 2251 DEB", "OBJECT_ID": "1993-036AKH", "EPOCH": "2025-12-02T05:27:33.223104", "MEAN_MOTION": 13.92736992, "ECCENTRICITY": 0.0241628, "INCLINATION": 74.0171, "RA_OF_ASC_NODE": 152.7492, "ARG_OF_PERICENTER": 324.3535, "MEAN_ANOMALY": 217.5666, "EPHEMERIS_TYPE": 0, "CLASSIFICATION_TYPE": "U", "NORAD_CAT_ID": 35439, "ELEMENT_SET_NO": 999, "REV_AT_EPOCH": 83814, "BSTAR": 0.0017362, "MEAN_MOTION_DOT": 2.829e-05, "MEAN_MOTION_DDOT": 0}, "tle": {"line1": "1 35439U 93036AKH 25336.22746786  .00002829  00000+0  17362-2 0  9997", "line2": "2 35439  74.0171 152.7492 0241628 324.3535 217.5666 13.92736992838142"}}, "geometry": {"type": "Point", "coordinates": [-43.953500856313006, 38.95076327563754]}}]}